[{"OBJECT_NAME":"ONEWEB-0342","OBJECT_ID":"2021-083Y","EPOCH":"2025-10-24T12:28:46.617600","MEAN_MOTION":13.20771249,"ECCENTRICITY":0.0001936,"INCLINATION":87.9203,"RA_OF_ASC_NODE":321.434,"ARG_OF_PERICENTER":97.9175,"MEAN_ANOMALY":262.2178,"EPHEMERIS_TYPE":0,"CLASSIFICATION_TYPE":"U","NORAD_CAT_ID":49208,"ELEMENT_SET_NO":999,"REV_AT_EPOCH":20567,"BSTAR":9.191e-5,"MEAN_MOTION_DOT":5.0e-7,"MEAN_MOTION_DDOT":0},{"OBJECT_NAME":"ONEWEB-0343","OBJECT_ID":"2021-083Z","EPOCH":"2025-10-24T18:43:13.384992","MEAN_MOTION":13.18683687,"ECCENTRICITY":0.0002351,"INCLINATION":87.9232,"RA_OF_ASC_NODE":22.2056,"ARG_OF_PERICENTER":100.5325,"MEAN_ANOMALY":259.6072,"EPHEMERIS_TYPE":0,"CLASSIFICATION_TYPE":"U","NORAD_CAT_ID":49209,"ELEMENT_SET_NO":999,"REV_AT_EPOCH":19901,"BSTAR":1.2664e-5,"MEAN_MOTION_DOT":1.8e-7,"MEAN_MOTION_DDOT":0},{"OBJECT_NAME":"ONEWEB-0344","OBJECT_ID":"2021-083AA","EPOCH":"2025-10-24T17:32:45.559968","MEAN_MOTION":13.13468029,"ECCENTRICITY":0.0002101,"INCLINATION":87.9032,"RA_OF_ASC_NODE":7.0643,"ARG_OF_PERICENTER":90.2791,"MEAN_ANOMALY":269.8578,"EPHEMERIS_TYPE":0,"CLASSIFICATION_TYPE":"U","NORAD_CAT_ID":49210,"ELEMENT_SET_NO":999,"REV_AT_EPOCH":19998,"BSTAR":0.00079226,"MEAN_MOTION_DOT":3.02e-6,"MEAN_MOTION_DDOT":0},{"OBJECT_NAME":"ONEWEB-0345","OBJECT_ID":"2021-083AB","EPOCH":"2025-10-24T17:20:34.119168","MEAN_MOTION":13.13471285,"ECCENTRICITY":0.0002151,"INCLINATION":87.9032,"RA_OF_ASC_NODE":7.0214,"ARG_OF_PERICENTER":93.2515,"MEAN_ANOMALY":266.8861,"EPHEMERIS_TYPE":0,"CLASSIFICATION_TYPE":"U","NORAD_CAT_ID":49211,"ELEMENT_SET_NO":999,"REV_AT_EPOCH":19999,"BSTAR":0.00088022,"MEAN_MOTION_DOT":3.34e-6,"MEAN_MOTION_DDOT":0},{"OBJECT_NAME":"ONEWEB-0346","OBJECT_ID":"2021-083AC","EPOCH":"2025-10-24T18:38:32.942688","MEAN_MOTION":13.18685684,"ECCENTRICITY":0.0001319,"INCLINATION":87.9231,"RA_OF_ASC_NODE":22.2231,"ARG_OF_PERICENTER":87.5552,"MEAN_ANOMALY":272.5731,"EPHEMERIS_TYPE":0,"CLASSIFICATION_TYPE":"U","NORAD_CAT_ID":49212,"ELEMENT_SET_NO":999,"REV_AT_EPOCH":19895,"BSTAR":-0.0002438,"MEAN_MOTION_DOT":-8.3e-7,"MEAN_MOTION_DDOT":0},{"OBJECT_NAME":"ONEWEB-0348","OBJECT_ID":"2021-083AD","EPOCH":"2025-10-24T12:15:08.407008","MEAN_MOTION":13.20771072,"ECCENTRICITY":0.0001969,"INCLINATION":87.9196,"RA_OF_ASC_NODE":321.4467,"ARG_OF_PERICENTER":76.4237,"MEAN_ANOMALY":283.7116,"EPHEMERIS_TYPE":0,"CLASSIFICATION_TYPE":"U","NORAD_CAT_ID":49213,"ELEMENT_SET_NO":999,"REV_AT_EPOCH":20570,"BSTAR":7.7708e-5,"MEAN_MOTION_DOT":4.5e-7,"MEAN_MOTION_DDOT":0},{"OBJECT_NAME":"ONEWEB-0350","OBJECT_ID":"2021-083AE","EPOCH":"2025-10-24T17:33:58.690656","MEAN_MOTION":13.13467805,"ECCENTRICITY":0.0001997,"INCLINATION":87.9046,"RA_OF_ASC_NODE":7.0161,"ARG_OF_PERICENTER":92.6916,"MEAN_ANOMALY":267.4442,"EPHEMERIS_TYPE":0,"CLASSIFICATION_TYPE":"U","NORAD_CAT_ID":49214,"ELEMENT_SET_NO":999,"REV_AT_EPOCH":20002,"BSTAR":0.00062743,"MEAN_MOTION_DOT":2.42e-6,"MEAN_MOTION_DDOT":0},{"OBJECT_NAME":"ONEWEB-0351","OBJECT_ID":"2021-083AF","EPOCH":"2025-10-24T19:22:11.788032","MEAN_MOTION":13.20768639,"ECCENTRICITY":0.0002624,"INCLINATION":87.9205,"RA_OF_ASC_NODE":321.3786,"ARG_OF_PERICENTER":105.8408,"MEAN_ANOMALY":254.3015,"EPHEMERIS_TYPE":0,"CLASSIFICATION_TYPE":"U","NORAD_CAT_ID":49215,"ELEMENT_SET_NO":999,"REV_AT_EPOCH":20570,"BSTAR":-9.561e-5,"MEAN_MOTION_DOT":-2.6e-7,"MEAN_MOTION_DDOT":0},{"OBJECT_NAME":"ONEWEB-0352","OBJECT_ID":"2021-083AG","EPOCH":"2025-10-24T17:05:55.548672","MEAN_MOTION":13.1347239,"ECCENTRICITY":0.0002214,"INCLINATION":87.9025,"RA_OF_ASC_NODE":7.048,"ARG_OF_PERICENTER":108.294,"MEAN_ANOMALY":251.843,"EPHEMERIS_TYPE":0,"CLASSIFICATION_TYPE":"U","NORAD_CAT_ID":49216,"ELEMENT_SET_NO":999,"REV_AT_EPOCH":20011,"BSTAR":0.00037538,"MEAN_MOTION_DOT":1.5e-6,"MEAN_MOTION_DDOT":0},{"OBJECT_NAME":"ONEWEB-0354","OBJECT_ID":"2021-083AH","EPOCH":"2025-10-24T19:58:46.526016","MEAN_MOTION":13.20770356,"ECCENTRICITY":0.0001992,"INCLINATION":87.9206,"RA_OF_ASC_NODE":321.3726,"ARG_OF_PERICENTER":86.6907,"MEAN_ANOMALY":273.4454,"EPHEMERIS_TYPE":0,"CLASSIFICATION_TYPE":"U","NORAD_CAT_ID":49217,"ELEMENT_SET_NO":999,"REV_AT_EPOCH":20574,"BSTAR":-0.00017879,"MEAN_MOTION_DOT":-6.0e-7,"MEAN_MOTION_DDOT":0},{"OBJECT_NAME":"ONEWEB-0355","OBJECT_ID":"2021-083AJ","EPOCH":"2025-10-24T17:47:34.781856","MEAN_MOTION":13.1346787,"ECCENTRICITY":0.0002088,"INCLINATION":87.9035,"RA_OF_ASC_NODE":7.0529,"ARG_OF_PERICENTER":100.4029,"MEAN_ANOMALY":259.7335,"EPHEMERIS_TYPE":0,"CLASSIFICATION_TYPE":"U","NORAD_CAT_ID":49218,"ELEMENT_SET_NO":999,"REV_AT_EPOCH":19999,"BSTAR":0.00022818,"MEAN_MOTION_DOT":9.6e-7,"MEAN_MOTION_DDOT":0},{"OBJECT_NAME":"ONEWEB-0357","OBJECT_ID":"2021-083AK","EPOCH":"2025-10-24T10:48:46.699200","MEAN_MOTION":13.20770586,"ECCENTRICITY":0.0002043,"INCLINATION":87.9203,"RA_OF_ASC_NODE":321.4463,"ARG_OF_PERICENTER":94.6122,"MEAN_ANOMALY":265.5245,"EPHEMERIS_TYPE":0,"CLASSIFICATION_TYPE":"U","NORAD_CAT_ID":49219,"ELEMENT_SET_NO":999,"REV_AT_EPOCH":20569,"BSTAR":-5.833e-5,"MEAN_MOTION_DOT":-1.1e-7,"MEAN_MOTION_DDOT":0},{"OBJECT_NAME":"ONEWEB-0332","OBJECT_ID":"2021-090A","EPOCH":"2025-10-24T15:13:05.973024","MEAN_MOTION":13.14503041,"ECCENTRICITY":0.0001855,"INCLINATION":87.9011,"RA_OF_ASC_NODE":336.6461,"ARG_OF_PERICENTER":105.1407,"MEAN_ANOMALY":254.9928,"EPHEMERIS_TYPE":0,"CLASSIFICATION_TYPE":"U","NORAD_CAT_ID":49279,"ELEMENT_SET_NO":999,"REV_AT_EPOCH":19663,"BSTAR":0.00049729,"MEAN_MOTION_DOT":1.97e-6,"MEAN_MOTION_DDOT":0},{"OBJECT_NAME":"ONEWEB-0347","OBJECT_ID":"2021-090B","EPOCH":"2025-10-24T19:40:35.033088","MEAN_MOTION":13.20769972,"ECCENTRICITY":0.0001677,"INCLINATION":87.92,"RA_OF_ASC_NODE":321.3858,"ARG_OF_PERICENTER":103.8604,"MEAN_ANOMALY":256.2716,"EPHEMERIS_TYPE":0,"CLASSIFICATION_TYPE":"U","NORAD_CAT_ID":49280,"ELEMENT_SET_NO":999,"REV_AT_EPOCH":19997,"BSTAR":-0.00015519,"MEAN_MOTION_DOT":-5.0e-7,"MEAN_MOTION_DDOT":0},{"OBJECT_NAME":"ONEWEB-0349","OBJECT_ID":"2021-090C","EPOCH":"2025-10-24T14:58:45.938784","MEAN_MOTION":13.20770443,"ECCENTRICITY":0.0001951,"INCLINATION":87.9193,"RA_OF_ASC_NODE":321.4246,"ARG_OF_PERICENTER":94.734,"MEAN_ANOMALY":265.4016,"EPHEMERIS_TYPE":0,"CLASSIFICATION_TYPE":"U","NORAD_CAT_ID":49281,"ELEMENT_SET_NO":999,"REV_AT_EPOCH":19873,"BSTAR":0.00016482,"MEAN_MOTION_DOT":8.0e-7,"MEAN_MOTION_DDOT":0},{"OBJECT_NAME":"ONEWEB-0353","OBJECT_ID":"2021-090D","EPOCH":"2025-10-24T15:01:40.160064","MEAN_MOTION":13.14503825,"ECCENTRICITY":0.0001811,"INCLINATION":87.9013,"RA_OF_ASC_NODE":336.6302,"ARG_OF_PERICENTER":104.8438,"MEAN_ANOMALY":255.2893,"EPHEMERIS_TYPE":0,"CLASSIFICATION_TYPE":"U","NORAD_CAT_ID":49282,"ELEMENT_SET_NO":999,"REV_AT_EPOCH":19663,"BSTAR":0.00021749,"MEAN_MOTION_DOT":9.3e-7,"MEAN_MOTION_DDOT":0},{"OBJECT_NAME":"ONEWEB-0356","OBJECT_ID":"2021-090E","EPOCH":"2025-10-24T18:34:40.945728","MEAN_MOTION":13.20771035,"ECCENTRICITY":9.64e-5,"INCLINATION":87.9193,"RA_OF_ASC_NODE":321.3858,"ARG_OF_PERICENTER":81.4718,"MEAN_ANOMALY":278.6524,"EPHEMERIS_TYPE":0,"CLASSIFICATION_TYPE":"U","NORAD_CAT_ID":49283,"ELEMENT_SET_NO":999,"REV_AT_EPOCH":19875,"BSTAR":0.00027273,"MEAN_MOTION_DOT":1.24e-6,"MEAN_MOTION_DDOT":0}]
