ONEWEB-0342             
1 49208U 21083Y   25297.51998400  .00000050  00000+0  91910-4 0  9996
2 49208  87.9203 321.4340 0001936  97.9175 262.2178 13.20771249205672
ONEWEB-0343             
1 49209U 21083Z   25297.78001603  .00000018  00000+0  12664-4 0  9999
2 49209  87.9232  22.2056 0002351 100.5325 259.6072 13.18683687199013
ONEWEB-0344             
1 49210U 21083AA  25297.73108287  .00000302  00000+0  79226-3 0  9994
2 49210  87.9032   7.0643 0002101  90.2791 269.8578 13.13468029199987
ONEWEB-0345             
1 49211U 21083AB  25297.72261712  .00000334  00000+0  88022-3 0  9996
2 49211  87.9032   7.0214 0002151  93.2515 266.8861 13.13471285199995
ONEWEB-0346             
1 49212U 21083AC  25297.77677017 -.00000083  00000+0 -24380-3 0  9991
2 49212  87.9231  22.2231 0001319  87.5552 272.5731 13.18685684198957
ONEWEB-0348             
1 49213U 21083AD  25297.51051397  .00000045  00000+0  77708-4 0  9990
2 49213  87.9196 321.4467 0001969  76.4237 283.7116 13.20771072205704
ONEWEB-0350             
1 49214U 21083AE  25297.73192929  .00000242  00000+0  62743-3 0  9993
2 49214  87.9046   7.0161 0001997  92.6916 267.4442 13.13467805200021
ONEWEB-0351             
1 49215U 21083AF  25297.80708088 -.00000026  00000+0 -95610-4 0  9993
2 49215  87.9205 321.3786 0002624 105.8408 254.3015 13.20768639205703
ONEWEB-0352             
1 49216U 21083AG  25297.71244848  .00000150  00000+0  37538-3 0  9993
2 49216  87.9025   7.0480 0002214 108.2940 251.8430 13.13472390200117
ONEWEB-0354             
1 49217U 21083AH  25297.83248294 -.00000060  00000+0 -17879-3 0  9994
2 49217  87.9206 321.3726 0001992  86.6907 273.4454 13.20770356205749
ONEWEB-0355             
1 49218U 21083AJ  25297.74137479  .00000096  00000+0  22818-3 0  9993
2 49218  87.9035   7.0529 0002088 100.4029 259.7335 13.13467870199996
ONEWEB-0357             
1 49219U 21083AK  25297.45054050 -.00000011  00000+0 -58330-4 0  9993
2 49219  87.9203 321.4463 0002043  94.6122 265.5245 13.20770586205692
ONEWEB-0332             
1 49279U 21090A   25297.63409691  .00000197  00000+0  49729-3 0  9996
2 49279  87.9011 336.6461 0001855 105.1407 254.9928 13.14503041196631
ONEWEB-0347             
1 49280U 21090B   25297.81984992 -.00000050  00000+0 -15519-3 0  9990
2 49280  87.9200 321.3858 0001677 103.8604 256.2716 13.20769972199974
ONEWEB-0349             
1 49281U 21090C   25297.62414281  .00000080  00000+0  16482-3 0  9990
2 49281  87.9193 321.4246 0001951  94.7340 265.4016 13.20770443198731
ONEWEB-0353             
1 49282U 21090D   25297.62615926  .00000093  00000+0  21749-3 0  9996
2 49282  87.9013 336.6302 0001811 104.8438 255.2893 13.14503825196638
ONEWEB-0356             
1 49283U 21090E   25297.77408502  .00000124  00000+0  27273-3 0  9996
2 49283  87.9193 321.3858 0000964  81.4718 278.6524 13.20771035198756
